CSS (TIANHE)            
1 48274U 21035A   24247.49930942  .00068307  00000+0  73155-3 0  9992
2 48274  41.4700 325.8344 0001945 355.5200   4.5621 15.62894714191344
